NORAD_CAT_ID,OBJECT_NAME,OBJECT_TYPE,EPOCH,MEAN_MOTION,ECCENTRICITY,INCLINATION,RA_OF_ASC_NODE,ARG_OF_PERICENTER,MEAN_ANOMALY,BSTAR,MEAN_MOTION_DOT,MEAN_MOTION_DDOT,TLE_LINE0,TLE_LINE1,TLE_LINE2,SEMIMAJOR_AXIS,PERIOD,APOGEE,PERIGEE,DECAYED
53282.0,STARLINK-4164,PAYLOAD,2023-10-09 18:15:32,15.08832585,0.0001958,53.2169,183.2516,71.4403,288.6802,-0.00016241,-2.872e-05,0.0,0 STARLINK-4164,1 53282U 22086AS  23282.76079681 -.00002872  00000-0 -16241-3 0  9997,2 53282  53.2169 183.2516 0001958  71.4403 288.6802 15.08832585 67884,6917.903,95.438,541.123,538.414,0.0
53282.0,STARLINK-4164,PAYLOAD,2023-10-09 21:26:19,15.08834927,0.0001232,53.2168,182.6571,81.2615,278.8517,-8.7646e-05,-1.682e-05,0.0,0 STARLINK-4164,1 53282U 22086AS  23282.89327549 -.00001682  00000-0 -87646-4 0  9996,2 53282  53.2168 182.6571 0001232  81.2615 278.8517 15.08834927 68074,6917.896,95.438,540.613,538.909,0.0
53282.0,STARLINK-4164,PAYLOAD,2023-10-10 10:09:24,15.08828696,0.0001129,53.2166,180.2794,91.6611,268.4511,0.00022817,3.344e-05,0.0,0 STARLINK-4164,1 53282U 22086AS  23283.42319801  .00003344  00000-0  22817-3 0  9991,2 53282  53.2166 180.2794 0001129  91.6611 268.4511 15.08828696 68153,6917.915,95.438,540.561,538.999,0.0
53282.0,STARLINK-4164,PAYLOAD,2023-10-10 21:17:06,15.08839486,9.24e-05,53.2156,178.1991,107.9742,252.1351,0.00043152,6.586e-05,0.0,0 STARLINK-4164,1 53282U 22086AS  23283.88687790  .00006586  00000-0  43152-3 0  9992,2 53282  53.2156 178.1991 0000924 107.9742 252.1351 15.08839486 68224,6917.882,95.438,540.386,539.108,0.0
53282.0,STARLINK-4164,PAYLOAD,2023-10-11 02:03:15,15.08857942,0.0001229,53.2157,177.3076,90.7496,269.3637,0.001598,0.00025248,0.0,0 STARLINK-4164,1 53282U 22086AS  23284.08559698  .00025248  00000-0  15980-2 0  9993,2 53282  53.2157 177.3076 0001229  90.7496 269.3637 15.08857942 68082,6917.826,95.436,540.541,538.84,0.0
53282.0,STARLINK-4164,PAYLOAD,2023-10-11 10:00:11,15.08850323,0.0001407,53.2162,175.8197,88.8839,271.2314,0.00085723,0.00013385,0.0,0 STARLINK-4164,1 53282U 22086AS  23284.41679876  .00013385  00000-0  85723-3 0  9993,2 53282  53.2162 175.8197 0001407  88.8839 271.2314 15.08850323 68138,6917.849,95.437,540.687,538.74,0.0
53282.0,STARLINK-4164,PAYLOAD,2023-10-12 09:50:58,15.08855237,0.0001611,53.2165,171.359,80.2348,279.8826,0.0014363,0.00022654,0.0,0 STARLINK-4164,1 53282U 22086AS  23285.41039913  .00022654  00000-0  14363-2 0  9996,2 53282  53.2165 171.3590 0001611  80.2348 279.8826 15.08855237 68453,6917.834,95.437,540.813,538.584,0.0
53282.0,STARLINK-4164,PAYLOAD,2023-10-12 16:12:30,15.08842865,0.0001153,53.2153,170.1696,89.3227,270.7897,0.00082788,0.00012913,0.0,0 STARLINK-4164,1 53282U 22086AS  23285.67535824  .00012913  00000-0  82788-3 0  9990,2 53282  53.2153 170.1696 0001153  89.3227 270.7897 15.08842865 68328,6917.872,95.437,540.534,538.939,0.0
53282.0,STARLINK-4164,PAYLOAD,2023-10-12 22:34:03,15.08853113,0.0001165,53.2154,168.9803,82.7553,277.3571,0.0020173,0.00031975,0.0,0 STARLINK-4164,1 53282U 22086AS  23285.94031886  .00031975  00000-0  20173-2 0  9997,2 53282  53.2154 168.9803 0001165  82.7553 277.3571 15.08853113 68539,6917.84,95.437,540.511,538.899,0.0
53282.0,STARLINK-4164,PAYLOAD,2023-10-13 09:41:45,15.08850332,0.0001436,53.2159,166.899,89.8298,270.2859,0.0013005,0.00020476,0.0,0 STARLINK-4164,1 53282U 22086AS  23286.40400071  .00020476  00000-0  13005-2 0  9995,2 53282  53.2159 166.8990 0001436  89.8298 270.2859 15.08850332 68433,6917.849,95.437,540.707,538.72,0.0
53282.0,STARLINK-4164,PAYLOAD,2023-10-13 20:49:27,15.08848531,0.0001059,53.2157,164.8181,95.8132,264.2981,0.0023468,0.00037268,0.0,0 STARLINK-4164,1 53282U 22086AS  23286.86768430  .00037268  00000-0  23468-2 0  9992,2 53282  53.2157 164.8181 0001059  95.8132 264.2981 15.08848531 68501,6917.854,95.437,540.452,538.987,0.0
53282.0,STARLINK-4164,PAYLOAD,2023-10-13 22:24:51,15.08852063,0.0001061,53.216,164.5202,94.4329,265.6784,0.0027345,0.00043515,0.0,0 STARLINK-4164,1 53282U 22086AS  23286.93392446  .00043515  00000-0  27345-2 0  9990,2 53282  53.2160 164.5202 0001061  94.4329 265.6784 15.08852063 68682,6917.844,95.437,540.443,538.975,0.0
53282.0,STARLINK-4164,PAYLOAD,2023-10-14 09:32:33,15.08851563,0.0001812,53.2166,162.4382,88.9417,271.1783,0.0015741,0.00024861,0.0,0 STARLINK-4164,1 53282U 22086AS  23287.39760835  .00024861  00000-0  15741-2 0  9992,2 53282  53.2166 162.4382 0001812  88.9417 271.1783 15.08851563 68588,6917.845,95.437,540.964,538.457,0.0
53282.0,STARLINK-4164,PAYLOAD,2023-10-14 22:15:37,15.08868051,0.0001316,53.2157,160.06,92.353,267.7613,0.001678,0.00026539,0.0,0 STARLINK-4164,1 53282U 22086AS  23287.92752130  .00026539  00000-0  16780-2 0  9998,2 53282  53.2157 160.0600 0001316  92.3530 267.7613 15.08868051 68830,6917.795,95.436,540.57,538.749,0.0
53282.0,STARLINK-4164,PAYLOAD,2023-10-15 01:26:23,15.08872491,0.0001297,53.2158,159.4651,92.0692,268.0448,0.0016326,0.00025814,0.0,0 STARLINK-4164,1 53282U 22086AS  23288.05999890  .00025814  00000-0  16326-2 0  9990,2 53282  53.2158 159.4651 0001297  92.0692 268.0448 15.08872491 68689,6917.781,95.435,540.543,538.749,0.0
53282.0,STARLINK-4164,PAYLOAD,2023-10-15 20:31:01,15.08853102,0.0001163,53.2159,155.896,82.0827,278.0297,0.0012247,0.00019264,0.0,0 STARLINK-4164,1 53282U 22086AS  23288.85487943  .00019264  00000-0  12247-2 0  9999,2 53282  53.2159 155.8960 0001163  82.0827 278.0297 15.08853102 68809,6917.84,95.437,540.51,538.901,0.0
53282.0,STARLINK-4164,PAYLOAD,2023-10-15 22:06:24,15.08852936,0.0001228,53.2159,155.5987,78.0831,282.0299,0.0011919,0.00018739,0.0,0 STARLINK-4164,1 53282U 22086AS  23288.92111944  .00018739  00000-0  11919-2 0  9993,2 53282  53.2159 155.5987 0001228  78.0831 282.0299 15.08852936 68987,6917.841,95.437,540.555,538.856,0.0
53282.0,STARLINK-4164,PAYLOAD,2023-10-16 07:38:43,15.08847787,0.0001186,53.2156,153.8141,78.5176,281.5949,0.00055065,8.488e-05,0.0,0 STARLINK-4164,1 53282U 22086AS  23289.31855930  .00008488  00000-0  55065-3 0  9998,2 53282  53.2156 153.8141 0001186  78.5176 281.5949 15.08847787 68879,6917.857,95.437,540.542,538.901,0.0
53282.0,STARLINK-4164,PAYLOAD,2023-10-18 00:58:46,15.08804957,0.0003963,53.215,146.0826,90.1678,269.9768,-0.0021424,-0.00034197,0.0,0 STARLINK-4164,1 53282U 22086AS  23291.04081308 -.00034197  00000-0 -21424-2 0  9990,2 53282  53.2150 146.0826 0003963  90.1678 269.9768 15.08804957 69130,6917.988,95.44,542.594,537.111,0.0
53282.0,STARLINK-4164,PAYLOAD,2023-10-18 23:14:10,15.08854348,0.0004843,53.2119,141.9194,82.3754,277.7788,0.0017437,0.00027588,0.0,0 STARLINK-4164,1 53282U 22086AS  23291.96817646  .00027588  00000-0  17437-2 0  9996,2 53282  53.2119 141.9194 0004843  82.3754 277.7788 15.08854348 69276,6917.837,95.437,543.052,536.351,0.0
53282.0,STARLINK-4164,PAYLOAD,2023-10-19 16:43:23,15.0885776,0.000179,53.2132,138.6483,90.4848,269.6349,0.000411,6.262e-05,0.0,0 STARLINK-4164,1 53282U 22086AS  23292.69680139  .00006262  00000-0  41100-3 0  9993,2 53282  53.2132 138.6483 0001790  90.4848 269.6349 15.08857760 69383,6917.826,95.436,540.929,538.453,0.0
53282.0,STARLINK-4164,PAYLOAD,2023-10-20 13:23:24,15.08849695,0.000384,53.2061,134.7863,81.1442,278.9985,0.00025189,3.724e-05,0.0,0 STARLINK-4164,1 53282U 22086AS  23293.55792745  .00003724  00000-0  25189-3 0  9995,2 53282  53.2061 134.7863 0003840  81.1442 278.9985 15.08849695 69510,6917.851,95.437,542.372,537.059,0.0
53282.0,STARLINK-4164,PAYLOAD,2023-10-20 16:34:11,15.088317,0.0001692,53.2142,134.1847,120.9742,239.1417,-4.1287e-06,-3.54e-06,0.0,0 STARLINK-4164,1 53282U 22086AS  23293.69040582 -.00000354  00000-0 -41287-5 0  9992,2 53282  53.2142 134.1847 0001692 120.9742 239.1417 15.08831700 69533,6917.906,95.438,540.941,538.6,0.0
53282.0,STARLINK-4164,PAYLOAD,2023-10-21 13:14:12,15.08842387,0.0001105,53.2153,130.3224,91.0575,269.0544,0.00012412,1.688e-05,0.0,0 STARLINK-4164,1 53282U 22086AS  23294.55152799  .00001688  00000-0  12412-3 0  9997,2 53282  53.2153 130.3224 0001105  91.0575 269.0544 15.08842387 69832,6917.873,95.437,540.503,538.974,0.0
53282.0,STARLINK-4164,PAYLOAD,2023-10-21 19:35:44,15.08860559,0.000133,53.218,129.1318,84.5577,275.5567,0.0010837,0.00017011,0.0,0 STARLINK-4164,1 53282U 22086AS  23294.81648619  .00017011  00000-0  10837-2 0  9992,2 53282  53.2180 129.1318 0001330  84.5577 275.5567 15.08860559 69705,6917.818,95.436,540.603,538.762,0.0
53282.0,STARLINK-4164,PAYLOAD,2023-10-21 22:46:30,15.08852037,0.0001191,53.2169,128.5381,89.9682,270.1446,0.00077551,0.0001208,0.0,0 STARLINK-4164,1 53282U 22086AS  23294.94896663  .00012080  00000-0  77551-3 0  9998,2 53282  53.2169 128.5381 0001191  89.9682 270.1446 15.08852037 69727,6917.844,95.437,540.533,538.885,0.0
53282.0,STARLINK-4164,PAYLOAD,2023-10-22 19:26:31,15.08841867,0.0001483,53.2164,124.6709,93.3608,266.7554,0.00018274,2.622e-05,0.0,0 STARLINK-4164,1 53282U 22086AS  23295.81008943  .00002622  00000-0  18274-3 0  9999,2 53282  53.2164 124.6709 0001483  93.3608 266.7554 15.08841867 69858,6917.875,95.437,540.766,538.714,0.0
53282.0,STARLINK-4164,PAYLOAD,2023-10-23 20:52:41,15.08847625,0.0001409,53.2159,119.9147,95.2305,264.8848,0.00029253,4.372e-05,0.0,0 STARLINK-4164,1 53282U 22086AS  23296.86992949  .00004372  00000-0  29253-3 0  9996,2 53282  53.2159 119.9147 0001409  95.2305 264.8848 15.08847625 70189,6917.857,95.437,540.697,538.747,0.0
53282.0,STARLINK-4164,PAYLOAD,2023-10-24 04:49:37,15.08837222,0.0001646,53.2157,118.4274,93.285,266.8331,5.9534e-05,6.6e-06,0.0,0 STARLINK-4164,1 53282U 22086AS  23297.20113260  .00000660  00000-0  59534-4 0  9998,2 53282  53.2157 118.4274 0001646  93.2850 266.8331 15.08837222 70066,6917.889,95.438,540.893,538.615,0.0
53282.0,STARLINK-4164,PAYLOAD,2023-10-24 12:46:33,15.08837348,0.000146,53.2157,116.9399,96.6227,263.4931,6.4876e-05,7.45e-06,0.0,0 STARLINK-4164,1 53282U 22086AS  23297.53233234  .00000745  00000-0  64876-4 0  9997,2 53282  53.2157 116.9399 0001460  96.6227 263.4931 15.08837348 70288,6917.888,95.438,540.764,538.743,0.0
